*******************************************************************************
Ephemeris / WWW_USER Tue Mar 11 05:35:35 2025 Pasadena, USA      / Horizons    
*******************************************************************************
Target body name: (2019 AS11)                     {source: JPL#3}
Center body name: Earth (399)                     {source: DE441}
Center-site name: Gemini South Obs., Cerro Pachon
*******************************************************************************
Start time      : A.D. 2018-Sep-22 22:47:00.0000 UT      
Stop  time      : A.D. 2018-Sep-23 10:23:00.0000 UT      
Step-size       : 1 minutes
*******************************************************************************
Target pole/equ : undefined
Target radii    : undefined                                                    
Center geodetic : 289.2634, -30.2406227, 2.71233  {E-lon(deg),Lat(deg),Alt(km)}
Center cylindric: 289.2634,5517.21435,-3194.81213 {E-lon(deg),Dxy(km),Dz(km)}
Center pole/equ : ITRF93                          {East-longitude positive}
Center radii    : 6378.137, 6378.137, 6356.752 km {Equator_a, b, pole_c}       
Target primary  : Sun
Vis. interferer : MOON (R_eq= 1737.400) km        {source: DE441}
Rel. light bend : Sun                             {source: DE441}
Rel. lght bnd GM: 1.3271E+11 km^3/s^2                                          
Small-body perts: Yes                             {source: SB441-N16}
Atmos refraction: NO (AIRLESS)
RA format       : HMS
Time format     : CAL 
Calendar mode   : Mixed Julian/Gregorian
RTS-only print  : NO       
EOP file        : eop.250310.p250606                                           
EOP coverage    : DATA-BASED 1962-JAN-20 TO 2025-MAR-10. PREDICTS-> 2025-JUN-05
Units conversion: 1 au= 149597870.700 km, c= 299792.458 km/s, 1 day= 86400.0 s 
Table cut-offs 1: Elevation (-90.0deg=NO ),Airmass (>38.000=NO), Daylight (YES)
Table cut-offs 2: Solar elongation (  0.0,180.0=NO ),Local Hour Angle( 0.0=NO )
Table cut-offs 3: RA/DEC angular rate (     0.0=NO )                           
*******************************************************************************
Initial IAU76/J2000 heliocentric ecliptic osculating elements (au, days, deg.):
  EPOCH=  2458497.5 ! 2019-Jan-14.00 (TDB)         Residual RMS= .087899       
   EC= .1148313279028816   QR= .9946661968961306   TP= 2458526.093433633       
   OM= 299.8828960483019   W=  203.050931799211    IN= 7.281527766683049       
  Equivalent ICRF heliocentric cartesian coordinates (au, au/d):
   X=-3.982431103506237E-01  Y= 8.438985356712057E-01  Z= 3.820551439764541E-01
  VX=-1.601846206933958E-02 VY=-6.309373484980013E-03 VZ=-5.215303828559489E-03
Asteroid physical parameters (km, seconds, rotational period in hours):        
   GM= n.a.                RAD= n.a.               ROTPER= n.a.                
   H= 26.8                 G= .150                 B-V= n.a.                   
                           ALBEDO= n.a.            STYP= n.a.                  
*******************************************************************************
 Date__(UT)__HR:MN     R.A._________(ICRF)_________DEC
******************************************************
$$SOE
 2018-Sep-23 04:56  m  03 50 43.001095 +44 07 00.91398
 2018-Sep-23 04:57  m  03 50 43.099916 +44 07 02.10311
 2018-Sep-23 04:58  m  03 50 43.198708 +44 07 03.29207
 2018-Sep-23 04:59  m  03 50 43.297472 +44 07 04.48087
 2018-Sep-23 05:00  m  03 50 43.396207 +44 07 05.66949
 2018-Sep-23 05:01  m  03 50 43.494913 +44 07 06.85795
 2018-Sep-23 05:02  m  03 50 43.593590 +44 07 08.04623
 2018-Sep-23 05:03  m  03 50 43.692239 +44 07 09.23435
 2018-Sep-23 05:04  m  03 50 43.790859 +44 07 10.42229
 2018-Sep-23 05:05  m  03 50 43.889451 +44 07 11.61006
 2018-Sep-23 05:06  m  03 50 43.988015 +44 07 12.79765
 2018-Sep-23 05:07  m  03 50 44.086551 +44 07 13.98507
 2018-Sep-23 05:08  m  03 50 44.185058 +44 07 15.17231
 2018-Sep-23 05:09  m  03 50 44.283538 +44 07 16.35937
 2018-Sep-23 05:10  m  03 50 44.381990 +44 07 17.54626
 2018-Sep-23 05:11  m  03 50 44.480414 +44 07 18.73297
 2018-Sep-23 05:12  m  03 50 44.578811 +44 07 19.91949
 2018-Sep-23 05:13  m  03 50 44.677180 +44 07 21.10584
 2018-Sep-23 05:14  m  03 50 44.775522 +44 07 22.29201
 2018-Sep-23 05:15  m  03 50 44.873836 +44 07 23.47799
 2018-Sep-23 05:16  m  03 50 44.972124 +44 07 24.66378
 2018-Sep-23 05:17  m  03 50 45.070384 +44 07 25.84940
 2018-Sep-23 05:18  m  03 50 45.168617 +44 07 27.03482
 2018-Sep-23 05:19  m  03 50 45.266824 +44 07 28.22007
 2018-Sep-23 05:20  m  03 50 45.365003 +44 07 29.40512
 2018-Sep-23 05:21  m  03 50 45.463156 +44 07 30.58999
 2018-Sep-23 05:22  m  03 50 45.561283 +44 07 31.77466
 2018-Sep-23 05:23  m  03 50 45.659383 +44 07 32.95915
 2018-Sep-23 05:24  m  03 50 45.757457 +44 07 34.14345
 2018-Sep-23 05:25  m  03 50 45.855504 +44 07 35.32755
 2018-Sep-23 05:26  m  03 50 45.953526 +44 07 36.51146
 2018-Sep-23 05:27  m  03 50 46.051521 +44 07 37.69518
 2018-Sep-23 05:28  m  03 50 46.149491 +44 07 38.87871
 2018-Sep-23 05:29  m  03 50 46.247435 +44 07 40.06203
 2018-Sep-23 05:30  m  03 50 46.345353 +44 07 41.24517
 2018-Sep-23 05:31  m  03 50 46.443245 +44 07 42.42810
 2018-Sep-23 05:32  m  03 50 46.541113 +44 07 43.61084
 2018-Sep-23 05:33  m  03 50 46.638955 +44 07 44.79338
 2018-Sep-23 05:34  m  03 50 46.736772 +44 07 45.97572
 2018-Sep-23 05:35  m  03 50 46.834563 +44 07 47.15787
 2018-Sep-23 05:36  m  03 50 46.932330 +44 07 48.33981
 2018-Sep-23 05:37  m  03 50 47.030072 +44 07 49.52154
 2018-Sep-23 05:38  m  03 50 47.127790 +44 07 50.70308
 2018-Sep-23 05:39  m  03 50 47.225482 +44 07 51.88441
 2018-Sep-23 05:40  m  03 50 47.323150 +44 07 53.06554
 2018-Sep-23 05:41  m  03 50 47.420794 +44 07 54.24646
 2018-Sep-23 05:42  m  03 50 47.518414 +44 07 55.42718
 2018-Sep-23 05:43  m  03 50 47.616009 +44 07 56.60769
 2018-Sep-23 05:44  m  03 50 47.713581 +44 07 57.78799
 2018-Sep-23 05:45  m  03 50 47.811129 +44 07 58.96809
 2018-Sep-23 05:46  m  03 50 47.908652 +44 08 00.14797
 2018-Sep-23 05:47  m  03 50 48.006153 +44 08 01.32765
 2018-Sep-23 05:48  m  03 50 48.103629 +44 08 02.50711
 2018-Sep-23 05:49  m  03 50 48.201083 +44 08 03.68636
 2018-Sep-23 05:50  m  03 50 48.298513 +44 08 04.86540
 2018-Sep-23 05:51  m  03 50 48.395920 +44 08 06.04423
 2018-Sep-23 05:52  m  03 50 48.493304 +44 08 07.22285
 2018-Sep-23 05:53  m  03 50 48.590665 +44 08 08.40125
 2018-Sep-23 05:54  m  03 50 48.688003 +44 08 09.57943
 2018-Sep-23 05:55  m  03 50 48.785319 +44 08 10.75740
 2018-Sep-23 05:56  m  03 50 48.882612 +44 08 11.93515
 2018-Sep-23 05:57  m  03 50 48.979883 +44 08 13.11269
 2018-Sep-23 05:58  m  03 50 49.077131 +44 08 14.29000
 2018-Sep-23 05:59  m  03 50 49.174357 +44 08 15.46710
 2018-Sep-23 06:00  m  03 50 49.271562 +44 08 16.64398
 2018-Sep-23 06:01  m  03 50 49.368744 +44 08 17.82063
 2018-Sep-23 06:02  m  03 50 49.465905 +44 08 18.99707
 2018-Sep-23 06:03  m  03 50 49.563044 +44 08 20.17328
 2018-Sep-23 06:04  m  03 50 49.660162 +44 08 21.34927
 2018-Sep-23 06:05  m  03 50 49.757258 +44 08 22.52504
 2018-Sep-23 06:06  m  03 50 49.854333 +44 08 23.70058
 2018-Sep-23 06:07  m  03 50 49.951387 +44 08 24.87590
 2018-Sep-23 06:08  m  03 50 50.048419 +44 08 26.05100
 2018-Sep-23 06:09  m  03 50 50.145432 +44 08 27.22586
 2018-Sep-23 06:10  m  03 50 50.242423 +44 08 28.40050
 2018-Sep-23 06:11  m  03 50 50.339394 +44 08 29.57492
 2018-Sep-23 06:12  m  03 50 50.436344 +44 08 30.74910
 2018-Sep-23 06:13  m  03 50 50.533274 +44 08 31.92306
 2018-Sep-23 06:14  m  03 50 50.630184 +44 08 33.09678
 2018-Sep-23 06:15  m  03 50 50.727074 +44 08 34.27028
 2018-Sep-23 06:16  m  03 50 50.823943 +44 08 35.44355
 2018-Sep-23 06:17  m  03 50 50.920793 +44 08 36.61658
 2018-Sep-23 06:18  m  03 50 51.017624 +44 08 37.78938
 2018-Sep-23 06:19  m  03 50 51.114435 +44 08 38.96195
 2018-Sep-23 06:20  m  03 50 51.211226 +44 08 40.13428
 2018-Sep-23 06:21  m  03 50 51.307999 +44 08 41.30638
 2018-Sep-23 06:22  m  03 50 51.404752 +44 08 42.47825
 2018-Sep-23 06:23  m  03 50 51.501486 +44 08 43.64988
 2018-Sep-23 06:24  m  03 50 51.598202 +44 08 44.82127
 2018-Sep-23 06:25  m  03 50 51.694899 +44 08 45.99243
 2018-Sep-23 06:26  m  03 50 51.791577 +44 08 47.16335
 2018-Sep-23 06:27  m  03 50 51.888237 +44 08 48.33404
 2018-Sep-23 06:28  m  03 50 51.984878 +44 08 49.50448
 2018-Sep-23 06:29  m  03 50 52.081501 +44 08 50.67468
 2018-Sep-23 06:30  m  03 50 52.178107 +44 08 51.84465
 2018-Sep-23 06:31  m  03 50 52.274694 +44 08 53.01437
 2018-Sep-23 06:32  m  03 50 52.371264 +44 08 54.18386
 2018-Sep-23 06:33  m  03 50 52.467816 +44 08 55.35310
 2018-Sep-23 06:34  m  03 50 52.564351 +44 08 56.52210
 2018-Sep-23 06:35  m  03 50 52.660869 +44 08 57.69086
 2018-Sep-23 06:36  m  03 50 52.757369 +44 08 58.85937
 2018-Sep-23 06:37  m  03 50 52.853853 +44 09 00.02764
 2018-Sep-23 06:38  m  03 50 52.950319 +44 09 01.19567
 2018-Sep-23 06:39  m  03 50 53.046769 +44 09 02.36345
 2018-Sep-23 06:40  m  03 50 53.143202 +44 09 03.53098
 2018-Sep-23 06:41  m  03 50 53.239619 +44 09 04.69827
 2018-Sep-23 06:42  m  03 50 53.336019 +44 09 05.86531
 2018-Sep-23 06:43  m  03 50 53.432403 +44 09 07.03211
 2018-Sep-23 06:44  m  03 50 53.528772 +44 09 08.19866
 2018-Sep-23 06:45  m  03 50 53.625124 +44 09 09.36495
 2018-Sep-23 06:46  m  03 50 53.721461 +44 09 10.53101
 2018-Sep-23 06:47  m  03 50 53.817782 +44 09 11.69681
 2018-Sep-23 06:48  m  03 50 53.914088 +44 09 12.86236
 2018-Sep-23 06:49  m  03 50 54.010378 +44 09 14.02766
 2018-Sep-23 06:50  m  03 50 54.106653 +44 09 15.19271
 2018-Sep-23 06:51  m  03 50 54.202914 +44 09 16.35751
 2018-Sep-23 06:52  m  03 50 54.299159 +44 09 17.52205
 2018-Sep-23 06:53  m  03 50 54.395390 +44 09 18.68635
 2018-Sep-23 06:54  m  03 50 54.491606 +44 09 19.85039
 2018-Sep-23 06:55  m  03 50 54.587808 +44 09 21.01418
 2018-Sep-23 06:56  m  03 50 54.683995 +44 09 22.17771
 2018-Sep-23 06:57  m  03 50 54.780169 +44 09 23.34099
 2018-Sep-23 06:58  m  03 50 54.876328 +44 09 24.50402
